{
  "type": "FeatureCollection",
  "features": [
    {
      "type": "Feature",
      "properties": {
        "norad_id": 58701,
        "name": "TIANMU-1 16",
        "group": "weather",
        "lat": 36.91773215168149,
        "lon": 165.64782963103787,
        "alt_km": 491.1520421306386,
        "timestamp": "2025-12-16T10:53:45.105834+00:00",
        "meta_object_name": "TIANMU-1 16",
        "meta_object_id": "2024-004B",
        "meta_epoch": "2025-12-15T23:42:20.225376",
        "meta_mean_motion": 15.24479,
        "meta_eccentricity": 0.0004358,
        "meta_inclination": 97.4565,
        "meta_ra_of_asc_node": 170.8309,
        "meta_arg_of_pericenter": 281.7697,
        "meta_mean_anomaly": 78.3052,
        "meta_ephemeris_type": 0,
        "meta_classification_type": "U",
        "meta_norad_cat_id": 58701,
        "meta_element_set_no": 999,
        "meta_rev_at_epoch": 10784,
        "meta_bstar": 0.00022790036,
        "meta_mean_motion_dot": 5.528e-05,
        "meta_mean_motion_ddot": 0,
        "tle_line1": "1 58701U 24004B   25349.98773409  .00005528  00000+0  22790-3 0  9993",
        "tle_line2": "2 58701  97.4565 170.8309 0004358 281.7697  78.3052 15.24479000107844"
      },
      "geometry": {
        "type": "Point",
        "coordinates": [
          165.64782963103787,
          36.91773215168149
        ]
      }
    },
    {
      "type": "Feature",
      "properties": {
        "norad_id": 58702,
        "name": "TIANMU-1 17",
        "group": "weather",
        "lat": 56.77899400804017,
        "lon": 3.2481974681484296,
        "alt_km": 489.11963510856003,
        "timestamp": "2025-12-16T10:53:45.105844+00:00",
        "meta_object_name": "TIANMU-1 17",
        "meta_object_id": "2024-004C",
        "meta_epoch": "2025-12-15T23:20:01.220640",
        "meta_mean_motion": 15.24522912,
        "meta_eccentricity": 0.00035714,
        "meta_inclination": 97.4598,
        "meta_ra_of_asc_node": 171.2272,
        "meta_arg_of_pericenter": 285.0355,
        "meta_mean_anomaly": 75.0487,
        "meta_ephemeris_type": 0,
        "meta_classification_type": "U",
        "meta_norad_cat_id": 58702,
        "meta_element_set_no": 999,
        "meta_rev_at_epoch": 10783,
        "meta_bstar": 0.00021725423,
        "meta_mean_motion_dot": 5.273e-05,
        "meta_mean_motion_ddot": 0,
        "tle_line1": "1 58702U 24004C   25349.97223635  .00005273  00000+0  21725-3 0  9998",
        "tle_line2": "2 58702  97.4598 171.2272 0003571 285.0355  75.0487 15.24522912107835"
      },
      "geometry": {
        "type": "Point",
        "coordinates": [
          3.2481974681484296,
          56.77899400804017
        ]
      }
    },
    {
      "type": "Feature",
      "properties": {
        "norad_id": 58703,
        "name": "TIANMU-1 18",
        "group": "weather",
        "lat": -33.510177549139335,
        "lon": -13.075575753898175,
        "alt_km": 497.7867765546225,
        "timestamp": "2025-12-16T10:53:45.105857+00:00",
        "meta_object_name": "TIANMU-1 18",
        "meta_object_id": "2024-004D",
        "meta_epoch": "2025-12-15T22:56:02.093856",
        "meta_mean_motion": 15.2450866,
        "meta_eccentricity": 0.00029185,
        "meta_inclination": 97.4616,
        "meta_ra_of_asc_node": 171.4066,
        "meta_arg_of_pericenter": 284.7503,
        "meta_mean_anomaly": 75.3411,
        "meta_ephemeris_type": 0,
        "meta_classification_type": "U",
        "meta_norad_cat_id": 58703,
        "meta_element_set_no": 999,
        "meta_rev_at_epoch": 10783,
        "meta_bstar": 0.00020357112,
        "meta_mean_motion_dot": 4.934e-05,
        "meta_mean_motion_ddot": 0,
        "tle_line1": "1 58703U 24004D   25349.95557979  .00004934  00000+0  20357-3 0  9991",
        "tle_line2": "2 58703  97.4616 171.4066 0002918 284.7503  75.3411 15.24508660107839"
      },
      "geometry": {
        "type": "Point",
        "coordinates": [
          -13.075575753898175,
          -33.510177549139335
        ]
      }
    },
    {
      "type": "Feature",
      "properties": {
        "norad_id": 58990,
        "name": "INSAT-3DS",
        "group": "weather",
        "lat": -0.026925679714038614,
        "lon": -29.124262588533945,
        "alt_km": 35783.601911743826,
        "timestamp": "2025-12-16T10:53:45.105871+00:00",
        "meta_object_name": "INSAT-3DS",
        "meta_object_id": "2024-033A",
        "meta_epoch": "2025-12-15T20:37:32.134080",
        "meta_mean_motion": 1.00272695,
        "meta_eccentricity": 0.00011551,
        "meta_inclination": 0.0459,
        "meta_ra_of_asc_node": 122.5405,
        "meta_arg_of_pericenter": 145.8403,
        "meta_mean_anomaly": 207.8528,
        "meta_ephemeris_type": 0,
        "meta_classification_type": "U",
        "meta_norad_cat_id": 58990,
        "meta_element_set_no": 999,
        "meta_rev_at_epoch": 4523,
        "meta_bstar": 0,
        "meta_mean_motion_dot": -1.34e-06,
        "meta_mean_motion_ddot": 0,
        "tle_line1": "1 58990U 24033A   25349.85939970 -.00000134  00000+0  00000+0 0  9993",
        "tle_line2": "2 58990   0.0459 122.5405 0001155 145.8403 207.8528  1.00272695 45235"
      },
      "geometry": {
        "type": "Point",
        "coordinates": [
          -29.124262588533945,
          -0.026925679714038614
        ]
      }
    },
    {
      "type": "Feature",
      "properties": {
        "norad_id": 59051,
        "name": "METEOR-M2 4",
        "group": "weather",
        "lat": 72.0166016635947,
        "lon": 155.36783905899583,
        "alt_km": 812.5862621353263,
        "timestamp": "2025-12-16T10:53:45.105882+00:00",
        "meta_object_name": "METEOR-M2 4",
        "meta_object_id": "2024-039A",
        "meta_epoch": "2025-12-16T00:16:16.172256",
        "meta_mean_motion": 14.2240184,
        "meta_eccentricity": 0.00068586,
        "meta_inclination": 98.6769,
        "meta_ra_of_asc_node": 306.8689,
        "meta_arg_of_pericenter": 349.1666,
        "meta_mean_anomaly": 10.9363,
        "meta_ephemeris_type": 0,
        "meta_classification_type": "U",
        "meta_norad_cat_id": 59051,
        "meta_element_set_no": 999,
        "meta_rev_at_epoch": 9322,
        "meta_bstar": 3.0237002e-05,
        "meta_mean_motion_dot": 2.4e-07,
        "meta_mean_motion_ddot": 0,
        "tle_line1": "1 59051U 24039A   25350.01129829  .00000024  00000+0  30237-4 0  9999",
        "tle_line2": "2 59051  98.6769 306.8689 0006858 349.1666  10.9363 14.22401840 93223"
      },
      "geometry": {
        "type": "Point",
        "coordinates": [
          155.36783905899583,
          72.0166016635947
        ]
      }
    },
    {
      "type": "Feature",
      "properties": {
        "norad_id": 60133,
        "name": "GOES 19",
        "group": "weather",
        "lat": 0.0006590715065974727,
        "lon": 173.5764338064037,
        "alt_km": 35789.67999024084,
        "timestamp": "2025-12-16T10:53:45.105894+00:00",
        "meta_object_name": "GOES 19",
        "meta_object_id": "2024-119A",
        "meta_epoch": "2025-12-15T21:35:26.589984",
        "meta_mean_motion": 1.00272551,
        "meta_eccentricity": 0.00010777,
        "meta_inclination": 0.0089,
        "meta_ra_of_asc_node": 205.1465,
        "meta_arg_of_pericenter": 114.7779,
        "meta_mean_anomaly": 13.5457,
        "meta_ephemeris_type": 0,
        "meta_classification_type": "U",
        "meta_norad_cat_id": 60133,
        "meta_element_set_no": 999,
        "meta_rev_at_epoch": 512,
        "meta_bstar": 0,
        "meta_mean_motion_dot": -2.26e-06,
        "meta_mean_motion_ddot": 0,
        "tle_line1": "1 60133U 24119A   25349.89961331 -.00000226  00000+0  00000+0 0  9992",
        "tle_line2": "2 60133   0.0089 205.1465 0001077 114.7779  13.5457  1.00272551  5122"
      },
      "geometry": {
        "type": "Point",
        "coordinates": [
          173.5764338064037,
          0.0006590715065974727
        ]
      }
    },
    {
      "type": "Feature",
      "properties": {
        "norad_id": 65815,
        "name": "FENGYUN 3H",
        "group": "weather",
        "lat": -48.07071319403723,
        "lon": -60.26836753180102,
        "alt_km": 832.8584834962185,
        "timestamp": "2025-12-16T10:53:45.105907+00:00",
        "meta_object_name": "FENGYUN 3H",
        "meta_object_id": "2025-219A",
        "meta_epoch": "2025-12-15T21:35:44.487744",
        "meta_mean_motion": 14.19905636,
        "meta_eccentricity": 6.54e-05,
        "meta_inclination": 98.6587,
        "meta_ra_of_asc_node": 289.4217,
        "meta_arg_of_pericenter": 99.229,
        "meta_mean_anomaly": 260.8961,
        "meta_ephemeris_type": 0,
        "meta_classification_type": "U",
        "meta_norad_cat_id": 65815,
        "meta_element_set_no": 999,
        "meta_rev_at_epoch": 1137,
        "meta_bstar": 5.040957e-05,
        "meta_mean_motion_dot": 6.4e-07,
        "meta_mean_motion_ddot": 0,
        "tle_line1": "1 65815U 25219A   25349.89982046  .00000064  00000+0  50410-4 0  9996",
        "tle_line2": "2 65815  98.6587 289.4217 0000654  99.2290 260.8961 14.19905636 11377"
      },
      "geometry": {
        "type": "Point",
        "coordinates": [
          -60.26836753180102,
          -48.07071319403723
        ]
      }
    }
  ]
}